{"type": "FeatureCollection", "features": [ {"type": "Feature", "properties": {"norad_id": 38779, "name": "GSAT-10 (GAGAN/PRN 128)", "group": "gnss", "lat": 0.08257806370344609, "lon": -21.15771965906375, "alt_km": 35794.89791196855, "timestamp": "2025-12-14T11:29:50.302495+00:00", "meta": {"OBJECT_NAME": "GSAT-10 (GAGAN/PRN 128)", "OBJECT_ID": "2012-051B", "EPOCH": "2025-12-13T15:33:23.654880", "MEAN_MOTION": 1.00273071, "ECCENTRICITY": 0.00024828, "INCLINATION": 0.0873, "RA_OF_ASC_NODE": 266.1903, "ARG_OF_PERICENTER": 223.9722, "MEAN_ANOMALY": 268.7694, "EPHEMERIS_TYPE": 0, "CLASSIFICATION_TYPE": "U", "NORAD_CAT_ID": 38779, "ELEMENT_SET_NO": 999, "REV_AT_EPOCH": 4823, "BSTAR": 0, "MEAN_MOTION_DOT": -1.5e-06, "MEAN_MOTION_DDOT": 0}, "tle": {"line1": "1 38779U 12051B   25347.64819045 -.00000150  00000+0  00000+0 0  9996", "line2": "2 38779   0.0873 266.1903 0002482 223.9722 268.7694  1.00273071 48234"}}, "geometry": {"type": "Point", "coordinates": [-21.15771965906375, 0.08257806370344609]}}, {"type": "Feature", "properties": {"norad_id": 38833, "name": "GPS BIIF-3  (PRN 24)", "group": "gnss", "lat": 52.71201998830957, "lon": -104.91260374758666, "alt_km": 19787.547791894565, "timestamp": "2025-12-14T11:29:50.302510+00:00", "meta": {"OBJECT_NAME": "GPS BIIF-3  (PRN 24)", "OBJECT_ID": "2012-053A", "EPOCH": "2025-12-12T20:25:41.380896", "MEAN_MOTION": 2.00565025, "ECCENTRICITY": 0.01758679, "INCLINATION": 53.5578, "RA_OF_ASC_NODE": 151.234, "ARG_OF_PERICENTER": 63.9869, "MEAN_ANOMALY": 297.8174, "EPHEMERIS_TYPE": 0, "CLASSIFICATION_TYPE": "U", "NORAD_CAT_ID": 38833, "ELEMENT_SET_NO": 999, "REV_AT_EPOCH": 9570, "BSTAR": 0, "MEAN_MOTION_DOT": 9.1e-07, "MEAN_MOTION_DDOT": 0}, "tle": {"line1": "1 38833U 12053A   25346.85117339  .00000091  00000+0  00000+0 0  9991", "line2": "2 38833  53.5578 151.2340 0175867  63.9869 297.8174  2.00565025 95705"}}, "geometry": {"type": "Point", "coordinates": [-104.91260374758666, 52.71201998830957]}}, {"type": "Feature", "properties": {"norad_id": 38857, "name": "GSAT0103 (GALILEO-FM3)", "group": "gnss", "lat": -34.96290596400516, "lon": -44.904655654676056, "alt_km": 23220.967563358638, "timestamp": "2025-12-14T11:29:50.302521+00:00", "meta": {"OBJECT_NAME": "GSAT0103 (GALILEO-FM3)", "OBJECT_ID": "2012-055A", "EPOCH": "2025-12-13T12:39:44.093088", "MEAN_MOTION": 1.70473367, "ECCENTRICITY": 0.00026827, "INCLINATION": 55.6929, "RA_OF_ASC_NODE": 106.6448, "ARG_OF_PERICENTER": 268.8486, "MEAN_ANOMALY": 91.0883, "EPHEMERIS_TYPE": 0, "CLASSIFICATION_TYPE": "U", "NORAD_CAT_ID": 38857, "ELEMENT_SET_NO": 999, "REV_AT_EPOCH": 8184, "BSTAR": 0, "MEAN_MOTION_DOT": 1e-08, "MEAN_MOTION_DDOT": 0}, "tle": {"line1": "1 38857U 12055A   25347.52759367  .00000001  00000+0  00000+0 0  9998", "line2": "2 38857  55.6929 106.6448 0002682 268.8486  91.0883  1.70473367 81846"}}, "geometry": {"type": "Point", "coordinates": [-44.904655654676056, -34.96290596400516]}}, {"type": "Feature", "properties": {"norad_id": 38953, "name": "BEIDOU-2 G6 (C02)", "group": "gnss", "lat": -3.9353396930298024, "lon": -20.203724763758377, "alt_km": 35757.43562332006, "timestamp": "2025-12-14T11:29:50.302535+00:00", "meta": {"OBJECT_NAME": "BEIDOU-2 G6 (C02)", "OBJECT_ID": "2012-059A", "EPOCH": "2025-12-13T15:33:46.118880", "MEAN_MOTION": 1.00269636, "ECCENTRICITY": 0.00078758, "INCLINATION": 3.9519, "RA_OF_ASC_NODE": 75.4972, "ARG_OF_PERICENTER": 289.8907, "MEAN_ANOMALY": 34.6349, "EPHEMERIS_TYPE": 0, "CLASSIFICATION_TYPE": "U", "NORAD_CAT_ID": 38953, "ELEMENT_SET_NO": 999, "REV_AT_EPOCH": 4804, "BSTAR": 0, "MEAN_MOTION_DOT": -1.61e-06, "MEAN_MOTION_DDOT": 0}, "tle": {"line1": "1 38953U 12059A   25347.64845045 -.00000161  00000+0  00000+0 0  9999", "line2": "2 38953   3.9519  75.4972 0007875 289.8907  34.6349  1.00269636 48049"}}, "geometry": {"type": "Point", "coordinates": [-20.203724763758377, -3.9353396930298024]}}, {"type": "Feature", "properties": {"norad_id": 38977, "name": "LUCH 5B (SDCM/PRN 125)", "group": "gnss", "lat": -1.3809878450314503, "lon": -120.60811214262829, "alt_km": 35756.37883659064, "timestamp": "2025-12-14T11:29:50.302548+00:00", "meta": {"OBJECT_NAME": "LUCH 5B (SDCM/PRN 125)", "OBJECT_ID": "2012-061A", "EPOCH": "2025-12-13T09:56:55.876704", "MEAN_MOTION": 1.00272264, "ECCENTRICITY": 0.00070752, "INCLINATION": 10.083, "RA_OF_ASC_NODE": 51.7008, "ARG_OF_PERICENTER": 193.3417, "MEAN_ANOMALY": 330.1982, "EPHEMERIS_TYPE": 0, "CLASSIFICATION_TYPE": "U", "NORAD_CAT_ID": 38977, "ELEMENT_SET_NO": 999, "REV_AT_EPOCH": 4774, "BSTAR": 0, "MEAN_MOTION_DOT": -1.29e-06, "MEAN_MOTION_DDOT": 0}, "tle": {"line1": "1 38977U 12061A   25347.41453561 -.00000129  00000+0  00000+0 0  9995", "line2": "2 38977  10.0830  51.7008 0007075 193.3417 330.1982  1.00272264 47748"}}, "geometry": {"type": "Point", "coordinates": [-120.60811214262829, -1.3809878450314503]}}, {"type": "Feature", "properties": {"norad_id": 39155, "name": "COSMOS 2485 (747)", "group": "gnss", "lat": -8.491672639213323, "lon": 75.8812166723768, "alt_km": 19163.7818186628, "timestamp": "2025-12-14T11:29:50.302559+00:00", "meta": {"OBJECT_NAME": "COSMOS 2485 (747)", "OBJECT_ID": "2013-019A", "EPOCH": "2025-12-13T13:15:58.678272", "MEAN_MOTION": 2.13102947, "ECCENTRICITY": 0.00246467, "INCLINATION": 65.3142, "RA_OF_ASC_NODE": 79.8396, "ARG_OF_PERICENTER": 229.7128, "MEAN_ANOMALY": 130.0848, "EPHEMERIS_TYPE": 0, "CLASSIFICATION_TYPE": "U", "NORAD_CAT_ID": 39155, "ELEMENT_SET_NO": 999, "REV_AT_EPOCH": 9832, "BSTAR": 0, "MEAN_MOTION_DOT": -4.8e-07, "MEAN_MOTION_DDOT": 0}, "tle": {"line1": "1 39155U 13019A   25347.55276248 -.00000048  00000+0  00000+0 0  9998", "line2": "2 39155  65.3142  79.8396 0024646 229.7128 130.0848  2.13102947 98326"}}, "geometry": {"type": "Point", "coordinates": [75.8812166723768, -8.491672639213323]}}, {"type": "Feature", "properties": {"norad_id": 39166, "name": "GPS BIIF-4  (PRN 27)", "group": "gnss", "lat": -12.776376873101079, "lon": 105.73254187851929, "alt_km": 20489.57547064071, "timestamp": "2025-12-14T11:29:50.302571+00:00", "meta": {"OBJECT_NAME": "GPS BIIF-4  (PRN 27)", "OBJECT_ID": "2013-023A", "EPOCH": "2025-12-13T05:07:46.586496", "MEAN_MOTION": 2.0056518, "ECCENTRICITY": 0.01379131, "INCLINATION": 54.6516, "RA_OF_ASC_NODE": 276.5489, "ARG_OF_PERICENTER": 48.6136, "MEAN_ANOMALY": 312.5751, "EPHEMERIS_TYPE": 0, "CLASSIFICATION_TYPE": "U", "NORAD_CAT_ID": 39166, "ELEMENT_SET_NO": 999, "REV_AT_EPOCH": 9215, "BSTAR": 0, "MEAN_MOTION_DOT": -7.6e-07, "MEAN_MOTION_DDOT": 0}, "tle": {"line1": "1 39166U 13023A   25347.21373364 -.00000076  00000+0  00000+0 0  9996", "line2": "2 39166  54.6516 276.5489 0137913  48.6136 312.5751  2.00565180 92155"}}, "geometry": {"type": "Point", "coordinates": [105.73254187851929, -12.776376873101079]}}, {"type": "Feature", "properties": {"norad_id": 39199, "name": "IRNSS-1A", "group": "gnss", "lat": -31.62290514677776, "lon": -53.19073138972166, "alt_km": 35740.31644252849, "timestamp": "2025-12-14T11:29:50.302585+00:00", "meta": {"OBJECT_NAME": "IRNSS-1A", "OBJECT_ID": "2013-034A", "EPOCH": "2025-12-02T19:49:26.431104", "MEAN_MOTION": 1.00279053, "ECCENTRICITY": 0.00216608, "INCLINATION": 35.2852, "RA_OF_ASC_NODE": 66.6964, "ARG_OF_PERICENTER": 185.4059, "MEAN_ANOMALY": 172.3398, "EPHEMERIS_TYPE": 0, "CLASSIFICATION_TYPE": "U", "NORAD_CAT_ID": 39199, "ELEMENT_SET_NO": 999, "REV_AT_EPOCH": 4539, "BSTAR": 0, "MEAN_MOTION_DOT": 6.5e-07, "MEAN_MOTION_DDOT": 0}, "tle": {"line1": "1 39199U 13034A   25336.82600036  .00000065  00000+0  00000+0 0  9995", "line2": "2 39199  35.2852  66.6964 0021660 185.4059 172.3398  1.00279053 45393"}}, "geometry": {"type": "Point", "coordinates": [-53.19073138972166, -31.62290514677776]}}, {"type": "Feature", "properties": {"norad_id": 39533, "name": "GPS BIIF-5  (PRN 30)", "group": "gnss", "lat": -13.592459573434168, "lon": -12.88680389782452, "alt_km": 19999.93754692411, "timestamp": "2025-12-14T11:29:50.302598+00:00", "meta": {"OBJECT_NAME": "GPS BIIF-5  (PRN 30)", "OBJECT_ID": "2014-008A", "EPOCH": "2025-12-12T17:01:11.546688", "MEAN_MOTION": 2.00574462, "ECCENTRICITY": 0.00792236, "INCLINATION": 53.6311, "RA_OF_ASC_NODE": 156.9259, "ARG_OF_PERICENTER": 226.5032, "MEAN_ANOMALY": 132.848, "EPHEMERIS_TYPE": 0, "CLASSIFICATION_TYPE": "U", "NORAD_CAT_ID": 39533, "ELEMENT_SET_NO": 999, "REV_AT_EPOCH": 8594, "BSTAR": 0, "MEAN_MOTION_DOT": 9.5e-07, "MEAN_MOTION_DDOT": 0}, "tle": {"line1": "1 39533U 14008A   25346.70916142  .00000095  00000+0  00000+0 0  9998", "line2": "2 39533  53.6311 156.9259 0079223 226.5032 132.8480  2.00574462 85946"}}, "geometry": {"type": "Point", "coordinates": [-12.88680389782452, -13.592459573434168]}}, {"type": "Feature", "properties": {"norad_id": 39617, "name": "ASTRA 5B (EGNOS/PRN 123)", "group": "gnss", "lat": -0.06919513823457991, "lon": -80.64991439197381, "alt_km": 35767.80052977451, "timestamp": "2025-12-14T11:29:50.302610+00:00", "meta": {"OBJECT_NAME": "ASTRA 5B (EGNOS/PRN 123)", "OBJECT_ID": "2014-011B", "EPOCH": "2025-12-13T15:16:25.281408", "MEAN_MOTION": 1.00272986, "ECCENTRICITY": 0.00043258, "INCLINATION": 0.0626, "RA_OF_ASC_NODE": 39.9704, "ARG_OF_PERICENTER": 226.5576, "MEAN_ANOMALY": 68.6312, "EPHEMERIS_TYPE": 0, "CLASSIFICATION_TYPE": "U", "NORAD_CAT_ID": 39617, "ELEMENT_SET_NO": 999, "REV_AT_EPOCH": 4280, "BSTAR": 0, "MEAN_MOTION_DOT": 1.52e-06, "MEAN_MOTION_DDOT": 0}, "tle": {"line1": "1 39617U 14011B   25347.63640372  .00000152  00000+0  00000+0 0  9991", "line2": "2 39617   0.0626  39.9704 0004325 226.5576  68.6312  1.00272986 42806"}}, "geometry": {"type": "Point", "coordinates": [-80.64991439197381, -0.06919513823457991]}}]}